ONEWEB-0311             
1 49097U 21075Y   25051.66046890  .00000018  00000+0  13040-4 0  9996
2 49097  87.9040 101.7948 0001462  95.9571 264.1728 13.17649458170217
ONEWEB-0312             
1 49098U 21075Z   25051.67564487 -.00000025  00000+0 -98599-4 0  9997
2 49098  87.9039 101.8228 0001717  85.9998 274.1329 13.17646742170191
ONEWEB-0313             
1 49099U 21075AA  25051.68058540 -.00000066  00000+0 -20284-3 0  9997
2 49099  87.9040 101.8376 0001729  91.2687 268.8643 13.17649773170181
ONEWEB-0314             
1 49100U 21075AB  25051.87475867 -.00000537  00000+0 -14164-2 0  9998
2 49100  87.9034 101.7346 0001659  85.2801 274.8520 13.17649613170180
ONEWEB-0315             
1 49101U 21075AC  25051.61922266  .00000454  00000+0  12263-2 0  9995
2 49101  87.8809  86.5184 0001471  99.0015 261.1280 13.12440937173001
ONEWEB-0316             
1 49102U 21075AD  25051.95075009  .00000051  00000+0  96165-4 0  9995
2 49102  87.9049  71.1711 0001681  91.6139 268.5186 13.18687658174795
ONEWEB-0318             
1 49104U 21075AF  25051.94758742  .00000109  00000+0  24381-3 0  9992
2 49104  87.9049  71.1588 0001583  91.2441 268.8873 13.18687618174749
